AZERSPACE 1             
1 39079U 13006B   25095.20114152  .00000117  00000+0  00000+0 0  9992
2 39079   0.0138 145.0264 0002147 265.6458 261.4980  1.00274794 44545
SBIRS GEO-2 (USA 241)   
1 39120U 13011A   25093.88517418 -.00000297  00000+0  00000+0 0  9999
2 39120   3.5561  50.7727 0002201 319.7957  90.7411  1.00271551 44137
EUTELSAT 117 WEST A     
1 39122U 13012A   25094.65740258 -.00000027  00000+0  00000+0 0  9999
2 39122   0.0527  66.1792 0002834 304.3709 302.5188  1.00270659 44035
ANIK G1                 
1 39127U 13014A   25094.51649061 -.00000088  00000+0  00000+0 0  9998
2 39127   0.0464  85.9077 0002432 256.1901 289.6061  1.00271039 43854
ZHONGXING-11            
1 39157U 13020A   25094.77138962 -.00000306  00000+0  00000+0 0  9992
2 39157   0.0154 257.6777 0005034  69.4189 241.8341  1.00271765 43501
EUTELSAT 7B             
1 39163U 13022A   25094.75340538  .00000033  00000+0  00000+0 0  9999
2 39163   0.0696  15.8510 0006306 351.7071 103.9509  1.00272675 43569
WGS F5 (USA 243)        
1 39168U 13024A   25094.81299209 -.00000299  00000+0  00000+0 0  9996
2 39168   0.0175 189.7155 0000455 133.6053 110.2008  1.00269365 43431
SES-6                   
1 39172U 13026A   25094.81533787 -.00000276  00000+0  00000+0 0  9990
2 39172   0.0388 297.6170 0002114  82.9884  65.7719  1.00271599 43323
IRNSS-1A                
1 39199U 13034A   25093.51155631  .00000073  00000+0  00000+0 0  9996
2 39199  34.7400  70.2039 0017346 189.0914 172.1726  1.00279753 42966
MUOS-2                  
1 39206U 13036A   25094.71691562  .00000052  00000+0  00000+0 0  9995
2 39206   4.1449  43.6678 0049902 181.7453  48.9237  1.00273959 42792
ALPHASAT                
1 39215U 13038A   25095.20669641  .00000120  00000+0  00000+0 0  9991
2 39215   2.9323   5.0705 0001790  31.9180 256.0323  1.00271612 42879
INSAT-3D                
1 39216U 13038B   25095.19280670 -.00000354  00000+0  00000+0 0  9991
2 39216   0.7928  88.4431 0001683 245.4847  58.7516  1.00271749 42918
WGS F6 (USA 244)        
1 39222U 13041A   25094.72516927  .00000075  00000+0  00000+0 0  9996
2 39222   0.0154 181.5141 0000360  77.8653  59.7638  1.00269841 41651
ES'HAIL 1               
1 39233U 13044A   25095.20669641  .00000128  00000+0  00000+0 0  9996
2 39233   0.0530  18.5732 0002155 353.7163 281.3463  1.00273236 42509
GSAT-7                  
1 39234U 13044B   25095.12367231 -.00000093  00000+0  00000+0 0  9990
2 39234   0.0776  89.3644 0008112 198.5668  24.2582  1.00271839 42507
AMOS-4                  
1 39237U 13045A   25095.12193471 -.00000008  00000+0  00000+0 0  9993
2 39237   0.0452 106.0470 0003369 262.2960 294.2235  1.00272298 42490
AEHF-3 (USA 246)        
1 39256U 13050A   25095.15564427  .00000016  00000+0  00000+0 0  9994
2 39256   4.2057  70.9253 0088158 179.5055 235.1351  1.00267993 42297
ASTRA 2E                
1 39285U 13056A   25094.75947520  .00000135  00000+0  00000+0 0  9998
2 39285   0.0771 318.9985 0003035  47.8071 128.4111  1.00268926 42025
FM-6                    
1 39360U 13058A   25094.58616867 -.00000031  00000+0  00000+0 0  9998
2 39360   0.0151 244.7842 0000871 246.4794 156.7603  1.00271724 41662
RADUGA-1M 3             
1 39375U 13062A   25093.47360551  .00000144  00000+0  00000+0 0  9996
2 39375   4.8407  77.7780 0000579 268.5590  51.2011  1.00273005 41692
SES-8                   
1 39460U 13071A   25094.62804500 -.00000284  00000+0  00000+0 0  9992
2 39460   0.0260 258.8884 0002143 142.1708 113.1984  1.00269009 40039
INMARSAT 5-F1           
1 39476U 13073A   25093.41919793  .00000017  00000+0  00000+0 0  9991
2 39476   0.0294  73.9688 0000514 195.7305 135.7698  1.00270968 41521
TKSAT-1 (TUPAC KATARI)  
1 39481U 13075A   25094.59190278 -.00000209  00000+0  00000+0 0  9992
2 39481   0.0463  36.0040 0003252 328.1584 314.8579  1.00271620 41197
EXPRESS-AM5             
1 39487U 13077A   25094.55183801 -.00000295  00000+0  00000+0 0  9995
2 39487   0.0155 233.9946 0000683  41.5609 256.2315  1.00270381 41968
GSAT-14                 
1 39498U 14001A   25094.05258707 -.00000090  00000+0  00000+0 0  9991
2 39498   0.0179 126.8609 0005100 168.0177 350.6537  1.00271992 40970
THAICOM 6               
1 39500U 14002A   25094.76756688 -.00000136  00000+0  00000+0 0  9996
2 39500   0.0573 112.1202 0001875 324.7623 111.2957  1.00270115 41065
TDRS 12                 
1 39504U 14004A   25094.74384854 -.00000283  00000+0  00000+0 0  9995
2 39504   3.6389  10.3445 0001246 256.2840 153.4751  1.00267293 39883
ABS-2                   
1 39508U 14006A   25094.76687183 -.00000101  00000+0  00000+0 0  9993
2 39508   0.0515  83.9015 0003079 286.5568 173.8524  1.00271852 40889
ATHENA-FIDUS            
1 39509U 14006B   25094.47382944  .00000140  00000+0  00000+0 0  9991
2 39509   0.0063 214.0685 0001783 171.6209  15.7292  1.00274856 40674
TURKSAT 4A              
1 39522U 14007A   25095.20114152  .00000130  00000+0  00000+0 0  9992
2 39522   0.0509 292.9706 0004380  18.3359 356.8321  1.00272442 40819
EXPRESS-AT1             
1 39612U 14010A   25094.69172031  .00000064  00000+0  00000+0 0  9994
2 39612   0.0185 184.1014 0000390  87.6551 226.5134  1.00270852 40428
EXPRESS-AT2             
1 39613U 14010B   25094.77973013 -.00000297  00000+0  00000+0 0  9992
2 39613   0.0134 247.0772 0000657  58.8583 307.9363  1.00270871 40108
AMAZONAS 4A             
1 39616U 14011A   25094.13227670 -.00000265  00000+0  00000+0 0  9992
2 39616   0.0572 211.1954 0002099 155.3662 159.7147  1.00269453 40314
ASTRA 5B                
1 39617U 14011B   25094.75947520  .00000122  00000+0  00000+0 0  9995
2 39617   0.0781 305.6709 0003539  39.9858 144.5362  1.00272067 40279
IRNSS-1B                
1 39635U 14017A   25087.01572826  .00000091  00000+0  00000+0 0  9990
2 39635  28.8753 248.0088 0021547 179.0384 179.4111  1.00277227 40312
LUCH-5V                 
1 39727U 14023A   25094.81575991 -.00000282  00000+0  00000+0 0  9994
2 39727   4.0375  73.8326 0002251 307.2908 200.6537  1.00273883 39969
KAZSAT-3                
1 39728U 14023B   25094.62074705  .00000046  00000+0  00000+0 0  9998
2 39728   0.0382  27.8725 0000189  55.8718  31.3801  1.00270673 40047
EUTELSAT 3B             
1 39773U 14030A   25094.75262346  .00000005  00000+0  00000+0 0  9995
2 39773   0.0651   3.5086 0000707 188.6622 275.1682  1.00271139 39672
ASIASAT 8 (AMOS-7)      
1 40107U 14046A   25094.76556862 -.00000169  00000+0  00000+0 0  9997
2 40107   0.0502  72.0340 0000598 275.7772 189.5716  1.00864894 97751
ASIASAT 6               
1 40141U 14052A   25094.77058720 -.00000377  00000+0  00000+0 0  9994
2 40141   0.0327 258.6938 0000891  87.0431 244.8815  1.00273418 38678
OPTUS 10                
1 40146U 14054A   25094.38447755 -.00000161  00000+0  00000+0 0  9999
2 40146   0.0741 308.3548 0003428  26.6978 152.3065  1.00270691 38633
MEASAT-3B               
1 40147U 14054B   25094.77017329 -.00000257  00000+0  00000+0 0  9999
2 40147   0.0533  50.9093 0003293 341.4306 169.7520  1.00271114 38517
LUCH (OLYMP-K 1)        
1 40258U 14058A   25094.69832941 -.00000103  00000+0  00000+0 0  9992
2 40258   0.7603  88.1242 0001955 260.3802  81.7602  1.00416021 36595
HIMAWARI-8              
1 40267U 14060A   25094.63707256 -.00000291  00000+0  00000+0 0  9997
2 40267   0.0160 199.3983 0000390 165.6286 198.1467  1.00266081 38355
IRNSS-1C                
1 40269U 14061A   25095.05402956 -.00000173  00000+0  00000+0 0  9995
2 40269   5.4014  97.8772 0020348   2.0020 196.1248  1.00268717 38439
INTELSAT 30 (IS-30)     
1 40271U 14062A   25093.16217558 -.00000161  00000+0  00000+0 0  9998
2 40271   0.0077 139.2391 0000649 272.8718 102.9474  1.00270701  2379
ARSAT 1                 
1 40272U 14062B   25093.95224272 -.00000272  00000+0  00000+0 0  9990
2 40272   0.0133 243.0589 0001646 121.7682  98.6757  1.00270674 38212
EXPRESS-AM6             
1 40277U 14064A   25094.76252781  .00000083  00000+0  00000+0 0  9992
2 40277   0.0142 237.4330 0001256  94.7628 188.6153  1.00272602 37182
GSAT-16                 
1 40332U 14078A   25094.73725257  .00000070  00000+0  00000+0 0  9995
2 40332   0.0676  87.1872 0005276 350.8975  75.6940  1.00272587 37714
DIRECTV 14              
1 40333U 14078B   25094.66087779 -.00000140  00000+0  00000+0 0  9997
2 40333   0.0275 296.9061 0000378 305.5950  89.3859  1.00270413 37658
YAMAL 401               
1 40345U 14082A   25094.71919961 -.00000243  00000+0  00000+0 0  9992
2 40345   0.0138 154.6794 0000379 201.4701 185.9639  1.00272503 37528
ASTRA 2G                
1 40364U 14089A   25094.75947520  .00000135  00000+0  00000+0 0  9995
2 40364   0.0555  23.2165 0004639  14.3005  97.3727  1.00272804 37579
FENGYUN 2G              
1 40367U 14090A   25094.98591537 -.00000314  00000+0  00000+0 0  9998
2 40367   4.5266  78.1123 0002197 125.5690  84.2609  1.00270186 37648
MUOS-3                  
1 40374U 15002A   25094.74880073 -.00000141  00000+0  00000+0 0  9998
2 40374   3.7126  39.9704 0052472 182.5190 224.9133  1.00272970 37199
INMARSAT 5-F2           
1 40384U 15005A   25093.74130216 -.00000297  00000+0  00000+0 0  9990
2 40384   0.0230 102.4611 0000431 200.9795 100.7028  1.00271127 36582
ABS-3A                  
1 40424U 15010A   25094.48238981 -.00000041  00000+0  00000+0 0  9998
2 40424   0.0156 219.5283 0001466 111.9938  32.1991  1.00271278 36975
EUTELSAT 115 WEST B     
1 40425U 15010B   25094.08655728 -.00000038  00000+0  00000+0 0  9993
2 40425   0.0059  39.3754 0000547  36.9014  32.6355  1.00272572 37034
EXPRESS-AM7             
1 40505U 15012A   25094.81246076  .00000136  00000+0  00000+0 0  9995
2 40505   0.0183 224.4563 0003066 134.0953 167.2937  1.00268901 36612
IRNSS-1D                
1 40547U 15018A   25094.34563691 -.00000297  00000+0  00000+0 0  9999
2 40547  26.9128 247.6240 0020757 184.8002 356.5865  1.00278859 36589
